<!DOCTYPE html PUBLIC "-//W3C//DTD XHTML 1.0 Transitional//EN" "http://www.w3.org/TR/xhtml1/DTD/xhtml1-transitional.dtd">
<html xmlns="http://www.w3.org/1999/xhtml">
<meta charset="utf-8">
<title>朝鲜火箭上午8：51发射，初步判断成功 - 政经评论 - 茶馆 -  Powered by Discuz! Archiver</title>
<link href="http://www.sychaguan.com/forum.php?mod=viewthread&tid=3820" rel="canonical" />
<meta name="keywords" content="朝鲜火箭上午8：51发射，初步判断成功" />
<meta name="description" content=" 朝鲜火箭上午8：51发射，初步判断成功 ,茶馆" />
<meta name="generator" content="Discuz! X2.5" />
<meta name="author" content="Discuz! Team and Comsenz UI Team" />
<meta name="copyright" content="2001-2012 Comsenz Inc." />
<style type="text/css">
	body {font-family: Verdana;FONT-SIZE: 12px;MARGIN: 0;color: #000000;background: #ffffff;}
	img {border:0;}
	li {margin-top: 8px;}
	.page {padding: 4px; border-top: 1px #EEEEEE solid}
	.author {background-color:#EEEEFF; padding: 6px; border-top: 1px #ddddee solid}
	#nav, #content, #end {padding: 8px; border: 1px solid #EEEEEE; clear: both; width: 95%; margin: auto; margin-top: 10px;}
	#header, #footer { margin-top: 20px; }
	#loginform {text-align: center;}
</style>
</head>
<body vlink="#333333" link="#333333">
<center id="header">
<h2>茶馆's Archiver </h2>
</center><div id="nav">
	<a href="./">论坛</a> &rsaquo; <a href="fid-44.html">政经评论</a> &rsaquo; 朝鲜火箭上午8：51发射，初步判断成功</div>

<div id="content">
			<p class="author">
					<strong>紫色月亮</strong>
				发表于 2012-12-12 10:26:14	</p>
			<h3>朝鲜火箭上午8：51发射，初步判断成功</h3>
		几个值得关注的地方：<br />
<br />
1、朝鲜火箭分离后三段均落在事先预告海域内<br />
<br />
火箭的第一段于9点58分降落在朝鲜半岛黄海海域，第二段降落在朝鲜半岛西南方向的东海海域。导弹最终于10点5分降落到菲律宾东部300公里太平洋海域。所有零件都降落在事先预告区域。<br />
<br />
说明朝鲜三级火箭分离技术已经掌握，测控也没有问题，韩国军方初步判断朝鲜远程火箭发射或获得成功。比韩国罗老号好，打了韩国的脸。<br />
<br />
2、韩国预先估计的29日发射错误<br />
<br />
韩国的情报可信度有问题啊。<br />
<br />
3、日本没有拦截<br />
<br />
日本政府消息称，朝鲜在当地时间12日上午发射火箭。目前火箭已飞过冲绳，日本当局没有拦截。<br />
<br />
那么借此布置反导是肯定的了，还是不敢拦截？<br />
<br />
4、中国的态度如何？<br />
<br />
已经说了朝鲜有和平利用外太空的权利，虽然该权利受到相关安理会协议制约。但本次发射中国是否掌握？<br />
<br />
				<p class="author">
					<strong>伊贺双刀流</strong>
				发表于 2012-12-12 10:33:50	</p>
			<h3></h3>
		北棒有这个技术可不是好事。				<p class="author">
					<strong>wisele</strong>
				发表于 2012-12-12 10:34:42	</p>
			<h3></h3>
		无法容忍 … 也得忍&nbsp; &nbsp;&nbsp; &nbsp; {:soso_e120:}<br />
<br />
<br />
据法新社报道，日本内阁官房长官藤村修12日称，日本“无法容忍”朝鲜发射火箭。<br />
　　 <br />
 藤村修说，尽管日本政府一再呼吁朝方克制，但朝鲜仍发射火箭，对此日方感到非常遗憾。日方向朝鲜提出强烈抗议。<br />
　　 <br />
 朝鲜在当地时间12日上午9时51分发射火箭。火箭在发射约12分钟后飞过冲绳，日本未进行拦截。目前日本方面有消息称，火箭在菲律宾附近海域坠落。<br />
				<p class="author">
					<strong>紫色月亮</strong>
				发表于 2012-12-12 10:36:31	</p>
			<h3></h3>
		迅雷不及掩耳盗铃拦火箭之势，金三胖的这个声东击西厉害				<p class="author">
					<strong>紫色月亮</strong>
				发表于 2012-12-12 10:38:27	</p>
			<h3></h3>
		 本帖最后由 紫色月亮 于 2012-12-12 10:40 编辑 <br />
<br />
wisele 发表于 2012-12-12 10:34 static/image/common/back.gif<br />
无法容忍 … 也得忍&nbsp; &nbsp;&nbsp; &nbsp; <br />
<br />
<br />
<br />
小日本每次都说拦，每次都不敢拦，<br />
下次别再说要拦截了。忒没有信用了。<br />
还说要强烈抗议，强烈抗议就是口头抗议罢了				<p class="author">
					<strong>紫色月亮</strong>
				发表于 2012-12-12 10:43:01	</p>
			<h3></h3>
		朝鲜宣布“光明星3”号卫星成功进入预定轨道				<p class="author">
					<strong>紫色月亮</strong>
				发表于 2012-12-12 10:43:22	</p>
			<h3></h3>
		朝鲜宣布“光明星3”号卫星成功进入预定轨道				<p class="author">
					<strong>149925880</strong>
				发表于 2012-12-12 10:46:37	</p>
			<h3></h3>
		哈哈，好玩<br />
花那么多钱搞的导弹拦截有什么用呢。太坑爹了				<p class="author">
					<strong>mop</strong>
				发表于 2012-12-12 10:51:08	</p>
			<h3></h3>
		149925880 发表于 2012-12-12 10:46 static/image/common/back.gif<br />
哈哈，好玩<br />
花那么多钱搞的导弹拦截有什么用呢。太坑爹了<br />
<br />
想拦截估计是能够打下来的，关键是他敢不敢这么干，俗话说，打狗还要看主人呀！				<p class="author">
					<strong>morningtiger</strong>
				发表于 2012-12-12 10:54:41	</p>
			<h3></h3>
		主体精神真牛啊。。。话说小白兔好像也不太高兴，不知真假。<br />
<br />
关于日本拦截，本来就是准备掉下来的时候才拦截，100公里以上没权利拦截。<br />
<br />
最不爽的是巩汉林吧{:soso_e113:}				<p class="author">
					<strong>morningtiger</strong>
				发表于 2012-12-12 10:55:08	</p>
			<h3></h3>
		主体精神真牛啊。。。话说小白兔好像也不太高兴，不知真假。<br />
<br />
关于日本拦截，本来就是准备掉下来的时候才拦截，100公里以上没权利拦截。<br />
<br />
最不爽的是巩汉林吧{:soso_e113:}，命不厚啊。				<p class="author">
					<strong>伊贺双刀流</strong>
				发表于 2012-12-12 11:01:24	</p>
			<h3></h3>
		最不爽的是兔子，这下北棒更有底气当二五仔了。				<p class="author">
					<strong>149925880</strong>
				发表于 2012-12-12 11:05:03	</p>
			<h3></h3>
		大家都是猜测，把前面的消息穿在一起，请高人解释吧。<br />
				<p class="author">
					<strong>o沸点冰点o</strong>
				发表于 2012-12-12 11:06:35	</p>
			<h3></h3>
		金三胖这招会不会是和北京唱的双簧呢？<br />
北京很沉默啊				<p class="author">
					<strong>若即若离</strong>
				发表于 2012-12-12 11:19:04	</p>
			<h3></h3>
		主要是给中东减减压，顺便帮日、韩测试一下反导系统，又树立了金三的光辉形象，应该得到TG的默许吧。				<p class="author">
					<strong>思炎</strong>
				发表于 2012-12-12 11:24:53	</p>
			<h3></h3>
		伊贺双刀流 发表于 2012-12-12 11:01 static/image/common/back.gif<br />
最不爽的是兔子，这下北棒更有底气当二五仔了。<br />
<br />
同感<br />
<br />
<br />
				<p class="author">
					<strong>登临快哉</strong>
				发表于 2012-12-12 11:42:11	</p>
			<h3></h3>
		对我朝我民族不利啊。棒子的特性早已显示了他们的野心与无赖，有利器在手更加有恃无恐了。				<p class="author">
					<strong>火星乐乐</strong>
				发表于 2012-12-12 11:43:57	</p>
			<h3></h3>
		金三胖好像有点不太很听TG的话，希望未来能教训一下金三				<p class="author">
					<strong>人在天涯</strong>
				发表于 2012-12-12 11:45:11	</p>
			<h3></h3>
		听说美国误报了发射的信息，是真的吗？有正事的消息来源吗？<br />
美国说火箭下发射台了，突然就射了，对TG是不祥之兆。				<p class="author">
					<strong>唯一而已</strong>
				发表于 2012-12-12 11:51:39	</p>
			<h3></h3>
		我倒感觉这对我国是有利的。<br />
现在西边叙利亚形势危急，东边没点事也说不过去。也许，朝鲜发射卫星是早有准备的，只是缺少一个时机，时机不对，对中国有负面影响。<br />
这次发射，选在这个时机，不管中国怎么反感，但都是策应了中国的世界战略。<br />
有失有得，西边局势有东边联动，但是失去的是，东亚势必有新一轮武器竞赛。				<p class="author">
					<strong>laojiu</strong>
				发表于 2012-12-12 12:15:10	</p>
			<h3></h3>
		看看满世界这些儿子们，金家的儿子是最称职的儿子。				<p class="author">
					<strong>伊莎贝</strong>
				发表于 2012-12-12 12:46:11	</p>
			<h3></h3>
		 本帖最后由 伊莎贝 于 2012-12-12 12:48 编辑 <br />
<br />
虽然中国对朝鲜影响力大，渗透深，但朝鲜一直仗着中朝特殊关系和地缘政治横，有事来找中国大哥，私下里一直试图单干和美国接触。<br />
<br />
几天前韩国曾提出3方会谈方案（中朝韩）取代6方会谈，这样中国的话语权重了。看来朝鲜不愿意？朝鲜还是想和美国谈<br />
<br />
在此时间发射火箭，除了朝鲜国内政治需求，显示小金的大权稳定和政治资本外，所谓牵扯韩国日本大选原因等很牵强......因为那也只能给日本右翼和几个国家找到借口，对已很忙的中国是添乱。				<p class="author">
					<strong>ademxue</strong>
				发表于 2012-12-12 13:09:34	</p>
			<h3></h3>
		旁观，坐等下文。				<p class="author">
					<strong>紫色月亮</strong>
				发表于 2012-12-12 13:39:29	</p>
			<h3></h3>
		轨道参数出来了！<br />
<br />
ORBIT<br />
1 39026U 12072A&nbsp; &nbsp;12347.09611576 -.00000066&nbsp;&nbsp;00000-0&nbsp;&nbsp;00000+0 0&nbsp; &nbsp; 21<br />
2 39026 097.4047 036.0317 0067405 176.3492 277.5861 15.08261084&nbsp; &nbsp; 19<br />
<br />
为了唯一的确定一个卫星的运行轨道，我们需要6个参数：<br />
1. 轨道半长轴，是椭圆长轴的一半。对于圆，也就是半径<br />
2. 轨道偏心率，也就是椭圆两焦点的距离和长轴比值。对于圆，它就是0.<br />
这两个要素决定了轨道的形状<br />
3. 轨道倾角，这个是轨道平面和地球赤道平面的夹角。对于位于赤道上空的同步静止卫星来说，倾角就是0。<br />
4. 升交点赤经：卫星从南半球运行到北半球时穿过赤道的那一点叫升交点。这个点和春分点对于地心的张角称为升交点赤经。<br />
这两个量决定了卫星轨道平面在空间的位置。<br />
5. 近地点幅角：这是近地点和升交点对地心的张角。<br />
前面虽然决定了轨道平面在空间的位置，但是轨道本身在轨道平面里还可以转动。而这个值则确定了轨道在轨道平面里的位置。<br />
6. 过近地点时刻，这个的意义很显然了。卫星位置随时间的变化需要一个初值。<br />
<br />
真正的数据实际上是下面那行，但是上面有一行关于空间物体其他情况的一些信息(空间物体可以是卫星，可以是末级火箭，可以是碎片）<br />
39026U和39026是北美防空司令部(NORAD)给出的卫星编号。U代表不保密。我们看到的都是U，否则我们就不会看到这组数据了；<br />
12072A是国际编号，12表示2012年，072表示是这一年的全球第72次发射。A则表示是这次发射里编号为A的物体，其他还有B，C，D等等；<br />
12347.09611576这个表示这组轨道数据的时间点。12还是2012年，347表示第347天，也就是12月12日。09611576表示这一天里的时刻；<br />
-.00000066是平均运动的对时间一阶导数除2。注意这个并不是瞬时角速度；00000-0是平均运动对时间的二阶导数除6；00000+0是BSTAR阻力系数；这3个量都是用于轨道摄动模型里面的；<br />
0是轨道模型。他们内部有不同数字代表不同模型，但是公布的都是0，也就是采用了SGP4/SDP4轨道模型；<br />
21最后一位是校验位。<br />
<br />
第二行最重要，是关于卫星的：<br />
39026前面讲过是NORAD卫星编号；<br />
097.4047是轨道倾角，97度多几乎垂直于地球赤道的轨道，可见这是一颗SSO卫星；&nbsp;&nbsp;<br />
036.0317是升交点赤经；<br />
0067405是轨道偏心率，0.0067405的偏心率，很接近正圆；<br />
176.3492是近地点幅角；<br />
277.5861是平近点角；<br />
15.08261084每天环绕地球的圈数，这个的倒数就是周期，可以看出朝鲜的卫星每天绕地球15圈多一点，周期5786秒（约1小时36分绕地球一圈），由R=（GM·T^2／4π^2）^（1／3）可以计算出轨道高度为590Km左右；<br />
19是校验位。				<p class="author">
					<strong>morningtiger</strong>
				发表于 2012-12-12 13:54:52	</p>
			<h3></h3>
		以朝鲜半岛和平稳定为重 <br />
2012年12月12日 10:15:13 <br />
来源： 新华国际 <br />
&nbsp; &nbsp; 在一片反对和劝阻声中，我行我素的朝鲜(他丫就这样，我有什么办法）依然按照自己的计划在12日发射了“光明星3号”卫星。<br />
<br />
&nbsp; &nbsp; 从朝鲜1日宣布将再次发射卫星后，国际社会就不断对此提出了异议。美韩日政府把朝鲜的卫星发射定性为“远程火箭”或“导弹”，指责朝鲜打着发射卫星的旗号发展远程导弹，违反了联合国安理会通过的1718号和1874号决议，是激化东北亚地区局势的“挑衅行为”。<br />
<br />
&nbsp; &nbsp; 美韩日的指责并非没有根据的空穴来风。按照联合国的相关决议，朝鲜不能进行“利用弹道导弹技术的一切发射活动”。联合国安理会之所以做出这样的决定，起源于朝鲜在2006年和2009年不顾世界各国的反对执意进行第一和第二次核试验，激起国际社会的强烈反对，通过这样的决议是可想而知的。<br />
<br />
&nbsp; &nbsp; 常识告诉人们，发射卫星的运载火箭从技术上说与发射远程弹道导弹是一致的。换句话说，既然能用这一运载火箭发射卫星，也就同样能发射导弹，甚至可以装载核弹头。对于这一点，朝鲜自己也十分清楚并公开承认的。在朝鲜已经进行两次核试验的情况下，人们担心朝鲜借发射卫星来发展其弹道导弹技术是完全正常的，因此要求朝鲜履行安理会的决议，停止这样的发射活动也是合情合理的。朝鲜的卫星发射受到联合国安理会相关决议的限制，原因正在于此。&nbsp;&nbsp;（你们说的都有道理） <br />
<br />
朝鲜作为一个主权国家进行和平的外层空间开发是世人公认的不可剥夺的权利。目前朝鲜正致力于发展经济，改善民生。发展宇宙空间技术为国民经济发展服务完全可以理解。那些把朝鲜发射卫星的行动一股脑儿地归结为“挑衅”的言论，也有失公允。但是，俗话说，没有规矩，不成方圆。这个世界上如果每个国家都随心所欲地行事，全然不顾当前的局势和别人的担忧及疑虑，世界就会乱套，对自己也没有好处。所以说，朝鲜要想行使自己的权利，必须考虑到国际规则，考虑到地区局势，同时应该想方设法为自己行使权利创造条件。<br />
<br />
&nbsp; &nbsp; 如何才能创造这样的条件呢？最好的办法无疑是早日恢复朝核问题六方会谈，（怎么办呢？六方会谈是主线，要牢牢把握。日美韩心头又是一千匹神兽飘过）重启朝鲜半岛无核化进程。众所周知，实现半岛无核化是包括朝鲜在内的朝核问题六方会谈在2005年的“9.19”共同声明中提出的、各方都认可的目标。虽然朝鲜在实现这一目标的方法上与美韩等有关方存在分歧，致使六方会谈中断3年之久至今尚未能复会，但是，这一目标没有变，也不能变。在实现这个目标的过程中，各方都应以大局为重，根据相关决议采取冷静克制的态度，而不能随心所欲，单方面采取行动激化局势，致使这个目标越来越遥远。自朝核问题六方会谈开始以来的近10年的事实证明，任何单方面的行动都不利于问题的解决，反而使局势变得更复杂，更难解决。美国2005年单方面实行的“金融制裁”、朝鲜悍然进行核试验等，都是如此。<br />
<br />
&nbsp; &nbsp; 目前的东北亚局各种矛盾交织在一起，局势并不稳定，朝鲜半岛尤其如此。早在朝鲜发射卫星前，国际社会，尤其是美韩日就表示要竭尽努力阻止发射，并警告称一旦发射，将采取坚决措施加以对应。可见朝鲜的这一举动已成为地区局势不稳定的新因素。<br />
<br />
&nbsp; &nbsp; 现在，朝鲜的卫星已经发射了。国际社会如何对应成为关注的焦点。看来联合国安理会讨论此事势在必行。过去的事实证明，安理会的决议和主席声明对朝鲜并不起作用，而有关国家采取过激行动也只会使局势轮番升级，变得难以收拾。现在应该以半岛和平稳定为重，保持冷静克制，尽快恢复六方会谈，把所有问题摆在谈判桌上，寻求各方都能接受的解决问题的方法。任何拖延、拒绝、讲条件的对话态度都是不可取的。（新华社世界问题研究中心研究员 高浩荣）<br />
<br />
小白兔不高兴，不过似乎也不很恼怒。				<p class="author">
					<strong>伊贺双刀流</strong>
				发表于 2012-12-12 14:03:33	</p>
			<h3></h3>
		紫色月亮 发表于 2012-12-12 13:39 static/image/common/back.gif<br />
轨道参数出来了！<br />
<br />
ORBIT<br />
<br />
<br />
不是很懂这个，兄台能解释下，根据这些数据能判断出这个卫星到底发射成功了吗？还有这个技术水平处于什么阶段，如果应用于远程导弹，大致性能可以达到什么水平？				<p class="author">
					<strong>紫色月亮</strong>
				发表于 2012-12-12 14:57:12	</p>
			<h3></h3>
		伊贺双刀流 发表于 2012-12-12 14:03 static/image/common/back.gif<br />
